{"spkid": "50152337", "covariance": {"data": [["6.174984197947188E-15", "-1.34596545723994E-14", "-1.724285926896245E-12", "9.493776632996096E-13", "-8.807886047191701E-13", "-1.044025122135515E-12"], ["-1.34596545723994E-14", "2.933942800143161E-14", "3.790872042695126E-12", "-2.054408310903688E-12", "1.923289562143342E-12", "2.272228591820821E-12"], ["-1.724285926896245E-12", "3.790872042695126E-12", "1.319247532267975E-9", "1.230921332197288E-10", "3.492704658639057E-10", "1.345244574520358E-10"], ["9.493776632996096E-13", "-2.054408310903688E-12", "1.230921332197288E-10", "3.958959326985832E-10", "-1.51569370550363E-10", "-2.090037289473712E-10"], ["-8.807886047191701E-13", "1.923289562143342E-12", "3.492704658639057E-10", "-1.51569370550363E-10", "2.058306186584905E-10", "9.100882393695683E-11"], ["-1.044025122135515E-12", "2.272228591820821E-12", "1.345244574520358E-10", "-2.090037289473712E-10", "9.100882393695683E-11", "3.821049709388938E-10"]], "elements": [{"name": "e", "sigma": 7.85810676813899e-08, "title": "eccentricity", "value": ".7112687127965852", "units": null, "label": "e"}, {"label": "q", "sigma": 1.71287559388975e-07, "name": "q", "units": "au", "value": ".6179672706778633", "title": "perihelion distance"}, {"label": "tp", "units": "TDB", "value": "2458409.749481467986", "title": "time of perihelion passage", "name": "tp", "sigma": 3.63214472766157e-05}, {"name": "om", "sigma": 1.98971337809892e-05, "value": "12.57619245364223", "title": "longitude of the ascending node", "units": "deg", "label": "node"}, {"units": "deg", "title": "argument of perihelion", "value": "95.66727191092308", "sigma": 1.43467982023339e-05, "name": "w", "label": "peri"}, {"units": "deg", "title": "inclination", "value": "10.13161906797974", "name": "i", "sigma": 1.9547505491466e-05, "label": "i"}], "labels": ["e", "q", "tp", "node", "peri", "i"], "epoch": "2458167.5"}, "elements": [{"title": "eccentricity", "value": ".7118763724500836", "units": null, "name": "e", "sigma": "7.9733E-8", "label": "e"}, {"units": "au", "value": "2.139154139084956", "title": "semi-major axis", "sigma": "1.2639E-8", "name": "a", "label": "a"}, {"label": "q", "title": "perihelion distance", "value": ".616340850441576", "units": "au", "sigma": "1.741E-7", "name": "q"}, {"name": "i", "sigma": "1.9591E-5", "units": "deg", "value": "10.15998869120293", "title": "inclination; angle with respect to x-y ecliptic plane", "label": "i"}, {"label": "node", "units": "deg", "title": "longitude of the ascending node", "value": "11.03472275054994", "name": "om", "sigma": "1.8927E-5"}, {"label": "peri", "units": "deg", "title": "argument of perihelion", "value": "97.38996290388927", "name": "w", "sigma": "1.3497E-5"}, {"units": "deg", "title": "mean anomaly", "value": "157.7326500280085", "name": "ma", "sigma": "1.5684E-5", "label": "M"}, {"sigma": "4.6752E-5", "name": "tp", "title": "time of perihelion passage", "value": "2460699.796479648032", "units": "TDB", "label": "tp"}, {"units": "d", "value": "1142.777144077024", "title": "sidereal orbital period", "sigma": "1.0128E-5", "name": "per", "label": "period"}, {"sigma": "2.7918E-9", "name": "n", "title": "mean motion", "value": ".3150220512073311", "units": "deg/d", "label": "n"}, {"name": "ad", "sigma": "2.1636E-8", "title": "aphelion distance", "value": "3.661967427728337", "units": "au", "label": "Q"}], "epoch": "2461200.5"}